HAWK-9C                 
1 59448U 24066G   26067.56477702  .00003036  00000+0  26713-3 0  9990
2 59448  45.5963  76.3952 0003436 229.7565 130.3016 14.98771048104736
STARLINK-32600          
1 62178U 24225R   26068.63305962  .00010214  00000+0  86211-3 0  9993
2 62178  70.0026 154.7094 0003012 264.8696  95.2119 14.98350761 70118
